QIANFAN-49              
1 62250U 24232P   25346.98838166  .00000115  00000+0  15934-3 0  9998
2 62250  89.0028  41.2112 0014299 186.4747 173.6222 13.50979080 67870
QIANFAN-50              
1 62251U 24232Q   25346.93898476  .00000125  00000+0  17505-3 0  9991
2 62251  89.0033  41.2243 0015887 188.8061 171.2814 13.50980605 67899
QIANFAN-51              
1 62252U 24232R   25346.92255156  .00000136  00000+0  19136-3 0  9997
2 62252  89.0027  41.2199 0013258 191.1562 168.9298 13.50978706 67883
QIANFAN-52              
1 62253U 24232S   25346.95135768  .00000122  00000+0  17042-3 0  9996
2 62253  89.0023  41.0906 0015519 184.5330 175.5684 13.50976845 67970
QIANFAN-53              
1 62254U 24232T   25346.93077068  .00000129  00000+0  18170-3 0  9993
2 62254  89.0031  41.1971 0014378 185.0935 175.0073 13.50979200 67933
QIANFAN-54              
1 62255U 24232U   25346.97193778  .00000126  00000+0  17596-3 0  9993
2 62255  89.0022  40.8715 0001686 172.0938 188.0240 13.50979422 99440
QIANFAN-55              
1 62785U 25016A   25346.92396557  .00000179  00000+0  25928-3 0  9993
2 62785  88.9780 103.1906 0016568 353.0730   7.0190 13.50987450 47210
QIANFAN-56              
1 62786U 25016B   25346.94037965  .00000196  00000+0  28570-3 0  9996
2 62786  88.9753 103.0254 0015287 355.9966   4.1060 13.50978701 47263
